{"type": "FeatureCollection", "features": [ {"type": "Feature", "properties": {"norad_id": 44476, "name": "INTELSAT 39 (IS-39)", "group": "intelsat", "lat": 0.01952587736379313, "lon": 131.50082087924432, "alt_km": 35781.961937773274, "timestamp": "2025-12-20T22:39:10.313459+00:00", "meta": {"OBJECT_NAME": "INTELSAT 39 (IS-39)", "OBJECT_ID": "2019-049B", "EPOCH": "2025-12-20T15:10:42.639744", "MEAN_MOTION": 1.00270595, "ECCENTRICITY": 0.00010528, "INCLINATION": 0.0007, "RA_OF_ASC_NODE": 40.5989, "ARG_OF_PERICENTER": 93.1346, "MEAN_ANOMALY": 245.3558, "EPHEMERIS_TYPE": 0, "CLASSIFICATION_TYPE": "U", "NORAD_CAT_ID": 44476, "ELEMENT_SET_NO": 999, "REV_AT_EPOCH": 2333, "BSTAR": 0, "MEAN_MOTION_DOT": 5.7e-07, "MEAN_MOTION_DDOT": 0}, "tle": {"line1": "1 44476U 19049B   25354.63243796  .00000057  00000+0  00000+0 0  9997", "line2": "2 44476   0.0007  40.5989 0001052  93.1346 245.3558  1.00270595 23335"}}, "geometry": {"type": "Point", "coordinates": [131.50082087924432, 0.01952587736379313]}}, {"type": "Feature", "properties": {"norad_id": 46114, "name": "GALAXY 30 (G-30)", "group": "intelsat", "lat": -0.02581337458314792, "lon": -55.41272867457631, "alt_km": 35778.44868679969, "timestamp": "2025-12-20T22:39:10.313470+00:00", "meta": {"OBJECT_NAME": "GALAXY 30 (G-30)", "OBJECT_ID": "2020-056C", "EPOCH": "2025-12-20T10:15:38.712960", "MEAN_MOTION": 1.00273232, "ECCENTRICITY": 0.00020273, "INCLINATION": 0.0119, "RA_OF_ASC_NODE": 340.3742, "ARG_OF_PERICENTER": 291.1216, "MEAN_ANOMALY": 206.6944, "EPHEMERIS_TYPE": 0, "CLASSIFICATION_TYPE": "U", "NORAD_CAT_ID": 46114, "ELEMENT_SET_NO": 999, "REV_AT_EPOCH": 1950, "BSTAR": 0, "MEAN_MOTION_DOT": 6e-07, "MEAN_MOTION_DDOT": 0}, "tle": {"line1": "1 46114U 20056C   25354.42753140  .00000060  00000+0  00000+0 0  9998", "line2": "2 46114   0.0119 340.3742 0002027 291.1216 206.6944  1.00273232 19501"}}, "geometry": {"type": "Point", "coordinates": [-55.41272867457631, -0.02581337458314792]}}, {"type": "Feature", "properties": {"norad_id": 54026, "name": "GALAXY 33 (G-33)", "group": "intelsat", "lat": -0.03619675613735916, "lon": -63.43597288423411, "alt_km": 35780.36647724483, "timestamp": "2025-12-20T22:39:10.313480+00:00", "meta": {"OBJECT_NAME": "GALAXY 33 (G-33)", "OBJECT_ID": "2022-128A", "EPOCH": "2025-12-20T12:35:49.747776", "MEAN_MOTION": 1.00271284, "ECCENTRICITY": 0.00015521, "INCLINATION": 0.0157, "RA_OF_ASC_NODE": 42.0026, "ARG_OF_PERICENTER": 226.8341, "MEAN_ANOMALY": 236.48, "EPHEMERIS_TYPE": 0, "CLASSIFICATION_TYPE": "U", "NORAD_CAT_ID": 54026, "ELEMENT_SET_NO": 999, "REV_AT_EPOCH": 1195, "BSTAR": 0, "MEAN_MOTION_DOT": 1.03e-06, "MEAN_MOTION_DDOT": 0}, "tle": {"line1": "1 54026U 22128A   25354.52488134  .00000103  00000+0  00000+0 0  9998", "line2": "2 54026   0.0157  42.0026 0001552 226.8341 236.4800  1.00271284 11959"}}, "geometry": {"type": "Point", "coordinates": [-63.43597288423411, -0.03619675613735916]}}, {"type": "Feature", "properties": {"norad_id": 54027, "name": "GALAXY 34 (G-34)", "group": "intelsat", "lat": -0.04573598625046825, "lon": -59.382683307881386, "alt_km": 35781.28708970426, "timestamp": "2025-12-20T22:39:10.313491+00:00", "meta": {"OBJECT_NAME": "GALAXY 34 (G-34)", "OBJECT_ID": "2022-128B", "EPOCH": "2025-12-20T12:57:25.874784", "MEAN_MOTION": 1.00267896, "ECCENTRICITY": 0.00017397, "INCLINATION": 0.0232, "RA_OF_ASC_NODE": 10.5268, "ARG_OF_PERICENTER": 252.6783, "MEAN_ANOMALY": 251.5813, "EPHEMERIS_TYPE": 0, "CLASSIFICATION_TYPE": "U", "NORAD_CAT_ID": 54027, "ELEMENT_SET_NO": 999, "REV_AT_EPOCH": 1212, "BSTAR": 0, "MEAN_MOTION_DOT": 0, "MEAN_MOTION_DDOT": 0}, "tle": {"line1": "1 54027U 22128B   25354.53988281  .00000000  00000+0  00000+0 0  9994", "line2": "2 54027   0.0232  10.5268 0001739 252.6783 251.5813  1.00267896 12122"}}, "geometry": {"type": "Point", "coordinates": [-59.382683307881386, -0.04573598625046825]}}, {"type": "Feature", "properties": {"norad_id": 54243, "name": "GALAXY 31 (G-31)", "group": "intelsat", "lat": -0.023072735962772872, "lon": -51.43715723250083, "alt_km": 35781.23056889677, "timestamp": "2025-12-20T22:39:10.313501+00:00", "meta": {"OBJECT_NAME": "GALAXY 31 (G-31)", "OBJECT_ID": "2022-153A", "EPOCH": "2025-12-20T12:39:19.412928", "MEAN_MOTION": 1.00271126, "ECCENTRICITY": 0.00013728, "INCLINATION": 0.0192, "RA_OF_ASC_NODE": 82.2452, "ARG_OF_PERICENTER": 196.0743, "MEAN_ANOMALY": 239.8726, "EPHEMERIS_TYPE": 0, "CLASSIFICATION_TYPE": "U", "NORAD_CAT_ID": 54243, "ELEMENT_SET_NO": 999, "REV_AT_EPOCH": 534, "BSTAR": 0, "MEAN_MOTION_DOT": 3.7e-07, "MEAN_MOTION_DDOT": 0}, "tle": {"line1": "1 54243U 22153A   25354.52730802  .00000037  00000+0  00000+0 0  9995", "line2": "2 54243   0.0192  82.2452 0001372 196.0743 239.8726  1.00271126  5347"}}, "geometry": {"type": "Point", "coordinates": [-51.43715723250083, -0.023072735962772872]}}, {"type": "Feature", "properties": {"norad_id": 54244, "name": "GALAXY 32 (G-32)", "group": "intelsat", "lat": -0.01670997768521176, "lon": -21.432943345711006, "alt_km": 35778.641784048166, "timestamp": "2025-12-20T22:39:10.313511+00:00", "meta": {"OBJECT_NAME": "GALAXY 32 (G-32)", "OBJECT_ID": "2022-153B", "EPOCH": "2025-12-19T12:21:45.204192", "MEAN_MOTION": 1.00271304, "ECCENTRICITY": 0.0001932, "INCLINATION": 0.0112, "RA_OF_ASC_NODE": 8.1777, "ARG_OF_PERICENTER": 310.6888, "MEAN_ANOMALY": 223.9419, "EPHEMERIS_TYPE": 0, "CLASSIFICATION_TYPE": "U", "NORAD_CAT_ID": 54244, "ELEMENT_SET_NO": 999, "REV_AT_EPOCH": 1134, "BSTAR": 0, "MEAN_MOTION_DOT": -1.5e-06, "MEAN_MOTION_DDOT": 0}, "tle": {"line1": "1 54244U 22153B   25353.51510653 -.00000150  00000+0  00000+0 0  9991", "line2": "2 54244   0.0112   8.1777 0001932 310.6888 223.9419  1.00271304 11341"}}, "geometry": {"type": "Point", "coordinates": [-21.432943345711006, -0.01670997768521176]}}, {"type": "Feature", "properties": {"norad_id": 54741, "name": "GALAXY 35 (G-35)", "group": "intelsat", "lat": -0.02520816170775591, "lon": -23.516191643913537, "alt_km": 35782.02934764639, "timestamp": "2025-12-20T22:39:10.313522+00:00", "meta": {"OBJECT_NAME": "GALAXY 35 (G-35)", "OBJECT_ID": "2022-170A", "EPOCH": "2025-12-20T11:17:55.670208", "MEAN_MOTION": 1.00272221, "ECCENTRICITY": 0.00021499, "INCLINATION": 0.0149, "RA_OF_ASC_NODE": 49.7326, "ARG_OF_PERICENTER": 222.5076, "MEAN_ANOMALY": 253.4523, "EPHEMERIS_TYPE": 0, "CLASSIFICATION_TYPE": "U", "NORAD_CAT_ID": 54741, "ELEMENT_SET_NO": 999, "REV_AT_EPOCH": 1110, "BSTAR": 0, "MEAN_MOTION_DOT": -1.39e-06, "MEAN_MOTION_DDOT": 0}, "tle": {"line1": "1 54741U 22170A   25354.47078322 -.00000139  00000+0  00000+0 0  9997", "line2": "2 54741   0.0149  49.7326 0002149 222.5076 253.4523  1.00272221 11102"}}, "geometry": {"type": "Point", "coordinates": [-23.516191643913537, -0.02520816170775591]}}, {"type": "Feature", "properties": {"norad_id": 54742, "name": "GALAXY 36 (G-36)", "group": "intelsat", "lat": -0.018743806940107095, "lon": -19.456505827335523, "alt_km": 35785.01436863202, "timestamp": "2025-12-20T22:39:10.313532+00:00", "meta": {"OBJECT_NAME": "GALAXY 36 (G-36)", "OBJECT_ID": "2022-170B", "EPOCH": "2025-12-20T05:57:27.900576", "MEAN_MOTION": 1.00269554, "ECCENTRICITY": 4.239e-05, "INCLINATION": 0.0144, "RA_OF_ASC_NODE": 13.7124, "ARG_OF_PERICENTER": 338.7619, "MEAN_ANOMALY": 96.9725, "EPHEMERIS_TYPE": 0, "CLASSIFICATION_TYPE": "U", "NORAD_CAT_ID": 54742, "ELEMENT_SET_NO": 999, "REV_AT_EPOCH": 1098, "BSTAR": 0, "MEAN_MOTION_DOT": 0, "MEAN_MOTION_DDOT": 0}, "tle": {"line1": "1 54742U 22170B   25354.24823959  .00000000  00000+0  00000+0 0  9993", "line2": "2 54742   0.0144  13.7124 0000423 338.7619  96.9725  1.00269554 10985"}}, "geometry": {"type": "Point", "coordinates": [-19.456505827335523, -0.018743806940107095]}}, {"type": "Feature", "properties": {"norad_id": 57493, "name": "GALAXY 37 (G-37)", "group": "intelsat", "lat": -0.036271133994496475, "lon": -57.439613237060286, "alt_km": 35779.28150378557, "timestamp": "2025-12-20T22:39:10.313542+00:00", "meta": {"OBJECT_NAME": "GALAXY 37 (G-37)", "OBJECT_ID": "2023-112A", "EPOCH": "2025-12-20T10:54:51.918048", "MEAN_MOTION": 1.00270902, "ECCENTRICITY": 0.00019255, "INCLINATION": 0.0163, "RA_OF_ASC_NODE": 358.7319, "ARG_OF_PERICENTER": 273.171, "MEAN_ANOMALY": 214.098, "EPHEMERIS_TYPE": 0, "CLASSIFICATION_TYPE": "U", "NORAD_CAT_ID": 57493, "ELEMENT_SET_NO": 999, "REV_AT_EPOCH": 875, "BSTAR": 0, "MEAN_MOTION_DOT": 7.2e-07, "MEAN_MOTION_DDOT": 0}, "tle": {"line1": "1 57493U 23112A   25354.45476757  .00000072  00000+0  00000+0 0  9998", "line2": "2 57493   0.0163 358.7319 0001925 273.1710 214.0980  1.00270902  8759"}}, "geometry": {"type": "Point", "coordinates": [-57.439613237060286, -0.036271133994496475]}}]}